{
  "type": "FeatureCollection",
  "features": [
    {
      "type": "Feature",
      "properties": {
        "norad_id": 15362,
        "name": "NOVA 3",
        "group": "nnss",
        "lat": 12.497522876163412,
        "lon": 80.55127609079351,
        "alt_km": 1159.900001225611,
        "timestamp": "2025-12-16T10:53:45.737929+00:00",
        "meta_object_name": "NOVA 3",
        "meta_object_id": "1984-110A",
        "meta_epoch": "2025-12-15T17:31:16.435776",
        "meta_mean_motion": 13.23044924,
        "meta_eccentricity": 0.00302848,
        "meta_inclination": 90.1224,
        "meta_ra_of_asc_node": 80.5699,
        "meta_arg_of_pericenter": 323.39,
        "meta_mean_anomaly": 202.795,
        "meta_ephemeris_type": 0,
        "meta_classification_type": "U",
        "meta_norad_cat_id": 15362,
        "meta_element_set_no": 999,
        "meta_rev_at_epoch": 98738,
        "meta_bstar": 9.7018491e-05,
        "meta_mean_motion_dot": 4.9e-07,
        "meta_mean_motion_ddot": 0,
        "tle_line1": "1 15362U 84110A   25349.73005134  .00000049  00000+0  97018-4 0  9998",
        "tle_line2": "2 15362  90.1224  80.5699 0030284 323.3900 202.7950 13.23044924987383"
      },
      "geometry": {
        "type": "Point",
        "coordinates": [
          80.55127609079351,
          12.497522876163412
        ]
      }
    },
    {
      "type": "Feature",
      "properties": {
        "norad_id": 15935,
        "name": "OSCAR 30",
        "group": "nnss",
        "lat": -86.70185831592902,
        "lon": -82.96534170544234,
        "alt_km": 1255.033743542438,
        "timestamp": "2025-12-16T10:53:45.737939+00:00",
        "meta_object_name": "OSCAR 30",
        "meta_object_id": "1985-066A",
        "meta_epoch": "2025-12-15T21:34:46.928064",
        "meta_mean_motion": 13.36078792,
        "meta_eccentricity": 0.01693632,
        "meta_inclination": 90.1654,
        "meta_ra_of_asc_node": 99.8987,
        "meta_arg_of_pericenter": 75.0933,
        "meta_mean_anomaly": 44.8684,
        "meta_ephemeris_type": 0,
        "meta_classification_type": "U",
        "meta_norad_cat_id": 15935,
        "meta_element_set_no": 999,
        "meta_rev_at_epoch": 96495,
        "meta_bstar": 0.00012447477,
        "meta_mean_motion_dot": 7.9e-07,
        "meta_mean_motion_ddot": 0,
        "tle_line1": "1 15935U 85066A   25349.89915426  .00000079  00000+0  12447-3 0  9991",
        "tle_line2": "2 15935  90.1654  99.8987 0169363  75.0933  44.8684 13.36078792964958"
      },
      "geometry": {
        "type": "Point",
        "coordinates": [
          -82.96534170544234,
          -86.70185831592902
        ]
      }
    },
    {
      "type": "Feature",
      "properties": {
        "norad_id": 15936,
        "name": "OSCAR 24",
        "group": "nnss",
        "lat": -21.445965193861774,
        "lon": 92.44139650311239,
        "alt_km": 1152.6772679884634,
        "timestamp": "2025-12-16T10:53:45.737950+00:00",
        "meta_object_name": "OSCAR 24",
        "meta_object_id": "1985-066B",
        "meta_epoch": "2025-12-15T19:22:26.935680",
        "meta_mean_motion": 13.35936216,
        "meta_eccentricity": 0.01704534,
        "meta_inclination": 90.1791,
        "meta_ra_of_asc_node": 92.3596,
        "meta_arg_of_pericenter": 81.7809,
        "meta_mean_anomaly": 30.1903,
        "meta_ephemeris_type": 0,
        "meta_classification_type": "U",
        "meta_norad_cat_id": 15936,
        "meta_element_set_no": 999,
        "meta_rev_at_epoch": 96684,
        "meta_bstar": 0.00011378352,
        "meta_mean_motion_dot": 7.3e-07,
        "meta_mean_motion_ddot": 0,
        "tle_line1": "1 15936U 85066B   25349.80725620  .00000073  00000+0  11378-3 0  9994",
        "tle_line2": "2 15936  90.1791  92.3596 0170453  81.7809  30.1903 13.35936216966848"
      },
      "geometry": {
        "type": "Point",
        "coordinates": [
          92.44139650311239,
          -21.445965193861774
        ]
      }
    },
    {
      "type": "Feature",
      "properties": {
        "norad_id": 17070,
        "name": "POLAR BEAR",
        "group": "nnss",
        "lat": -18.90194932850666,
        "lon": -176.50623487304856,
        "alt_km": 1004.131637176577,
        "timestamp": "2025-12-16T10:53:45.737961+00:00",
        "meta_object_name": "POLAR BEAR",
        "meta_object_id": "1986-088A",
        "meta_epoch": "2025-12-15T23:19:03.571968",
        "meta_mean_motion": 13.75251392,
        "meta_eccentricity": 0.00411433,
        "meta_inclination": 89.6171,
        "meta_ra_of_asc_node": 183.6444,
        "meta_arg_of_pericenter": 109.9221,
        "meta_mean_anomaly": 4.6435,
        "meta_ephemeris_type": 0,
        "meta_classification_type": "U",
        "meta_norad_cat_id": 17070,
        "meta_element_set_no": 999,
        "meta_rev_at_epoch": 96023,
        "meta_bstar": 0.00011463192,
        "meta_mean_motion_dot": 1.22e-06,
        "meta_mean_motion_ddot": 0,
        "tle_line1": "1 17070U 86088A   25349.97156912  .00000122  00000+0  11463-3 0  9990",
        "tle_line2": "2 17070  89.6171 183.6444 0041143 109.9221   4.6435 13.75251392960236"
      },
      "geometry": {
        "type": "Point",
        "coordinates": [
          -176.50623487304856,
          -18.90194932850666
        ]
      }
    },
    {
      "type": "Feature",
      "properties": {
        "norad_id": 18361,
        "name": "OSCAR 27",
        "group": "nnss",
        "lat": -13.578240574024047,
        "lon": -100.67907316536196,
        "alt_km": 1022.9241676520414,
        "timestamp": "2025-12-16T10:53:45.737971+00:00",
        "meta_object_name": "OSCAR 27",
        "meta_object_id": "1987-080A",
        "meta_epoch": "2025-12-15T19:38:49.895520",
        "meta_mean_motion": 13.44907297,
        "meta_eccentricity": 0.01031442,
        "meta_inclination": 90.3742,
        "meta_ra_of_asc_node": 79.3876,
        "meta_arg_of_pericenter": 214.9016,
        "meta_mean_anomaly": 144.534,
        "meta_ephemeris_type": 0,
        "meta_classification_type": "U",
        "meta_norad_cat_id": 18361,
        "meta_element_set_no": 999,
        "meta_rev_at_epoch": 87598,
        "meta_bstar": 0.00014323582,
        "meta_mean_motion_dot": 9.5e-07,
        "meta_mean_motion_ddot": 0,
        "tle_line1": "1 18361U 87080A   25349.81863305  .00000095  00000+0  14324-3 0  9999",
        "tle_line2": "2 18361  90.3742  79.3876 0103144 214.9016 144.5340 13.44907297875986"
      },
      "geometry": {
        "type": "Point",
        "coordinates": [
          -100.67907316536196,
          -13.578240574024047
        ]
      }
    },
    {
      "type": "Feature",
      "properties": {
        "norad_id": 18362,
        "name": "OSCAR 29",
        "group": "nnss",
        "lat": -19.327690625098924,
        "lon": -100.26129202134248,
        "alt_km": 1035.5995478480645,
        "timestamp": "2025-12-16T10:53:45.737982+00:00",
        "meta_object_name": "OSCAR 29",
        "meta_object_id": "1987-080B",
        "meta_epoch": "2025-12-15T20:13:04.156608",
        "meta_mean_motion": 13.44448966,
        "meta_eccentricity": 0.01040884,
        "meta_inclination": 90.3753,
        "meta_ra_of_asc_node": 79.8475,
        "meta_arg_of_pericenter": 238.1582,
        "meta_mean_anomaly": 243.4079,
        "meta_ephemeris_type": 0,
        "meta_classification_type": "U",
        "meta_norad_cat_id": 18362,
        "meta_element_set_no": 999,
        "meta_rev_at_epoch": 87551,
        "meta_bstar": 0.00013104868,
        "meta_mean_motion_dot": 8.6e-07,
        "meta_mean_motion_ddot": 0,
        "tle_line1": "1 18362U 87080B   25349.84240922  .00000086  00000+0  13105-3 0  9993",
        "tle_line2": "2 18362  90.3753  79.8475 0104088 238.1582 243.4079 13.44448966875513"
      },
      "geometry": {
        "type": "Point",
        "coordinates": [
          -100.26129202134248,
          -19.327690625098924
        ]
      }
    },
    {
      "type": "Feature",
      "properties": {
        "norad_id": 19070,
        "name": "OSCAR 23",
        "group": "nnss",
        "lat": 68.99463574491855,
        "lon": -162.65557615566152,
        "alt_km": 1072.119836073085,
        "timestamp": "2025-12-16T10:53:45.737996+00:00",
        "meta_object_name": "OSCAR 23",
        "meta_object_id": "1988-033A",
        "meta_epoch": "2025-12-15T23:48:10.080576",
        "meta_mean_motion": 13.27787567,
        "meta_eccentricity": 0.01897956,
        "meta_inclination": 90.321,
        "meta_ra_of_asc_node": 16.4935,
        "meta_arg_of_pericenter": 170.8855,
        "meta_mean_anomaly": 253.79,
        "meta_ephemeris_type": 0,
        "meta_classification_type": "U",
        "meta_norad_cat_id": 19070,
        "meta_element_set_no": 999,
        "meta_rev_at_epoch": 82296,
        "meta_bstar": 0.00017184691,
        "meta_mean_motion_dot": 9.4e-07,
        "meta_mean_motion_ddot": 0,
        "tle_line1": "1 19070U 88033A   25349.99178334  .00000094  00000+0  17185-3 0  9993",
        "tle_line2": "2 19070  90.3210  16.4935 0189795 170.8855 253.7900 13.27787567822961"
      },
      "geometry": {
        "type": "Point",
        "coordinates": [
          -162.65557615566152,
          68.99463574491855
        ]
      }
    }
  ]
}